[{"OBJECT_NAME":"STARLINK-34667","OBJECT_ID":"2025-150AB","EPOCH":"2026-03-09T14:29:26.974752","MEAN_MOTION":14.9833428,"ECCENTRICITY":0.0003357,"INCLINATION":70.002,"RA_OF_ASC_NODE":134.6792,"ARG_OF_PERICENTER":272.4516,"MEAN_ANOMALY":87.6259,"EPHEMERIS_TYPE":0,"CLASSIFICATION_TYPE":"U","NORAD_CAT_ID":64815,"ELEMENT_SET_NO":999,"REV_AT_EPOCH":3650,"BSTAR":0.00043976,"MEAN_MOTION_DOT":5.159e-5,"MEAN_MOTION_DDOT":0},{"OBJECT_NAME":"CZ-6A DEB","OBJECT_ID":"2024-140PM","EPOCH":"2026-03-09T13:51:31.286016","MEAN_MOTION":14.89023636,"ECCENTRICITY":0.005735,"INCLINATION":89.0306,"RA_OF_ASC_NODE":283.4654,"ARG_OF_PERICENTER":193.2665,"MEAN_ANOMALY":166.7059,"EPHEMERIS_TYPE":0,"CLASSIFICATION_TYPE":"U","NORAD_CAT_ID":61119,"ELEMENT_SET_NO":999,"REV_AT_EPOCH":8334,"BSTAR":0.0034209,"MEAN_MOTION_DOT":0.00033325,"MEAN_MOTION_DDOT":0}]
